start=new Date('2023-06-20T00:00:00.000Z').valueOf();
sats=[{"TLE_LINE2":"2 53031  53.2161 215.7680 0000910  93.8636 266.2460 15.08836601 53086","APOAPSIS":"540.385","LAUNCH_DATE":"2022-07-07","TLE_LINE1":"1 53031U 22076AX  23170.82151072  .00001436  00000-0  10829-3 0  9995","ECCENTRICITY":"0.00009100","CENTER_NAME":"EARTH","SITE":"AFETR","MEAN_MOTION":"15.08836601","REF_FRAME":"TEME","SEMIMAJOR_AXIS":"6917.891","RCS_SIZE":"LARGE","NORAD_CAT_ID":"53031","OBJECT_TYPE":"PAYLOAD","MEAN_ANOMALY":"266.2460","PERIOD":"95.438","CLASSIFICATION_TYPE":"U","RA_OF_ASC_NODE":"215.7680","MEAN_ELEMENT_THEORY":"SGP4","COUNTRY_CODE":"US","ARG_OF_PERICENTER":"93.8636","DECAY_DATE":null,"MEAN_MOTION_DDOT":"0.0000000000000","PERIAPSIS":"539.126","MEAN_MOTION_DOT":"0.00001436","OBJECT_ID":"2022-076AX","ELEMENT_SET_NO":"999","REV_AT_EPOCH":"5308","INCLINATION":"53.2161","FILE":"3937509","EPOCH":"2023-06-19T19:42:58.526208","EPHEMERIS_TYPE":"0","GP_ID":"234320017","OBJECT_NAME":"STARLINK-4137","TIME_SYSTEM":"UTC","BSTAR":"0.00010829000000"},{"MEAN_MOTION_DDOT":"0.0000000000000","PERIAPSIS":"539.051","ARG_OF_PERICENTER":"91.7837","DECAY_DATE":null,"PERIOD":"95.438","CLASSIFICATION_TYPE":"U","RA_OF_ASC_NODE":"225.6422","MEAN_ELEMENT_THEORY":"SGP4","COUNTRY_CODE":"US","GP_ID":"234318766","TIME_SYSTEM":"UTC","OBJECT_NAME":"STARLINK-4115","EPHEMERIS_TYPE":"0","BSTAR":"0.00011192000000","OBJECT_ID":"2022-076AY","MEAN_MOTION_DOT":"0.00001494","EPOCH":"2023-06-19T20:24:02.609280","FILE":"3937509","ELEMENT_SET_NO":"999","REV_AT_EPOCH":"5295","INCLINATION":"53.2157","CENTER_NAME":"EARTH","ECCENTRICITY":"0.00010040","LAUNCH_DATE":"2022-07-07","TLE_LINE1":"1 53032U 22076AY  23170.85003020  .00001494  00000-0  11192-3 0  9996","SITE":"AFETR","APOAPSIS":"540.441","TLE_LINE2":"2 53032  53.2157 225.6422 0001004  91.7837 268.3270 15.08839815 52958","NORAD_CAT_ID":"53032","RCS_SIZE":"LARGE","OBJECT_TYPE":"PAYLOAD","MEAN_ANOMALY":"268.3270","MEAN_MOTION":"15.08839815","REF_FRAME":"TEME","SEMIMAJOR_AXIS":"6917.881"},{"CENTER_NAME":"EARTH","ECCENTRICITY":"0.00009500","LAUNCH_DATE":"2022-07-07","TLE_LINE1":"1 53033U 22076AZ  23170.82519422  .00001375  00000-0  10448-3 0  9993","SITE":"AFETR","APOAPSIS":"540.418","TLE_LINE2":"2 53033  53.2160 215.7511 0000950  89.9774 270.1327 15.08834954 53088","RCS_SIZE":"LARGE","NORAD_CAT_ID":"53033","OBJECT_TYPE":"PAYLOAD","MEAN_ANOMALY":"270.1327","MEAN_MOTION":"15.08834954","SEMIMAJOR_AXIS":"6917.896","REF_FRAME":"TEME","PERIAPSIS":"539.104","MEAN_MOTION_DDOT":"0.0000000000000","DECAY_DATE":null,"ARG_OF_PERICENTER":"89.9774","RA_OF_ASC_NODE":"215.7511","CLASSIFICATION_TYPE":"U","PERIOD":"95.438","MEAN_ELEMENT_THEORY":"SGP4","COUNTRY_CODE":"US","TIME_SYSTEM":"UTC","OBJECT_NAME":"STARLINK-4167","GP_ID":"234318514","EPHEMERIS_TYPE":"0","BSTAR":"0.00010448000000","OBJECT_ID":"2022-076AZ","MEAN_MOTION_DOT":"0.00001375","FILE":"3937509","EPOCH":"2023-06-19T19:48:16.780608","INCLINATION":"53.2160","ELEMENT_SET_NO":"999","REV_AT_EPOCH":"5308"},{"NORAD_CAT_ID":"53034","RCS_SIZE":"LARGE","MEAN_ANOMALY":"268.0082","OBJECT_TYPE":"PAYLOAD","MEAN_MOTION":"15.08836906","SEMIMAJOR_AXIS":"6917.890","REF_FRAME":"TEME","ECCENTRICITY":"0.00010120","CENTER_NAME":"EARTH","LAUNCH_DATE":"2022-07-07","TLE_LINE1":"1 53034U 22076BA  23170.82887345  .00000956  00000-0  78173-4 0  9990","SITE":"AFETR","APOAPSIS":"540.455","TLE_LINE2":"2 53034  53.2146 215.7382 0001012  92.1026 268.0082 15.08836906 53088","OBJECT_NAME":"STARLINK-4151","TIME_SYSTEM":"UTC","GP_ID":"234319267","EPHEMERIS_TYPE":"0","BSTAR":"0.00007817300000","OBJECT_ID":"2022-076BA","MEAN_MOTION_DOT":"0.00000956","FILE":"3937509","EPOCH":"2023-06-19T19:53:34.666080","INCLINATION":"53.2146","REV_AT_EPOCH":"5308","ELEMENT_SET_NO":"999","PERIAPSIS":"539.055","MEAN_MOTION_DDOT":"0.0000000000000","DECAY_DATE":null,"ARG_OF_PERICENTER":"92.1026","RA_OF_ASC_NODE":"215.7382","CLASSIFICATION_TYPE":"U","PERIOD":"95.438","COUNTRY_CODE":"US","MEAN_ELEMENT_THEORY":"SGP4"},{"MEAN_ANOMALY":"272.6063","OBJECT_TYPE":"PAYLOAD","RCS_SIZE":"LARGE","NORAD_CAT_ID":"53035","REF_FRAME":"TEME","SEMIMAJOR_AXIS":"6917.896","MEAN_MOTION":"15.08835049","SITE":"AFETR","TLE_LINE1":"1 53035U 22076BB  23170.81783257  .00000419  00000-0  44393-4 0  9998","LAUNCH_DATE":"2022-07-07","CENTER_NAME":"EARTH","ECCENTRICITY":"0.00009510","TLE_LINE2":"2 53035  53.2162 215.7848 0000951  87.5038 272.6063 15.08835049 53083","APOAPSIS":"540.418","BSTAR":"0.00004439300000","EPHEMERIS_TYPE":"0","TIME_SYSTEM":"UTC","OBJECT_NAME":"STARLINK-4157","GP_ID":"234319517","INCLINATION":"53.2162","REV_AT_EPOCH":"5308","ELEMENT_SET_NO":"999","EPOCH":"2023-06-19T19:37:40.734048","FILE":"3937509","MEAN_MOTION_DOT":"0.00000419","OBJECT_ID":"2022-076BB","DECAY_DATE":null,"ARG_OF_PERICENTER":"87.5038","PERIAPSIS":"539.103","MEAN_MOTION_DDOT":"0.0000000000000","COUNTRY_CODE":"US","MEAN_ELEMENT_THEORY":"SGP4","RA_OF_ASC_NODE":"215.7848","CLASSIFICATION_TYPE":"U","PERIOD":"95.438"},{"OBJECT_TYPE":"PAYLOAD","MEAN_ANOMALY":"263.3737","NORAD_CAT_ID":"53036","RCS_SIZE":"LARGE","SEMIMAJOR_AXIS":"6917.888","REF_FRAME":"TEME","MEAN_MOTION":"15.08837628","SITE":"AFETR","TLE_LINE1":"1 53036U 22076BC  23170.41670772  .00001459  00000-0  10971-3 0  9991","LAUNCH_DATE":"2022-07-07","ECCENTRICITY":"0.00009000","CENTER_NAME":"EARTH","TLE_LINE2":"2 53036  53.2158 217.5839 0000900  96.7357 263.3737 15.08837628 53023","APOAPSIS":"540.375","BSTAR":"0.00010971000000","EPHEMERIS_TYPE":"0","TIME_SYSTEM":"UTC","OBJECT_NAME":"STARLINK-4155","GP_ID":"234288340","INCLINATION":"53.2158","REV_AT_EPOCH":"5302","ELEMENT_SET_NO":"999","FILE":"3937338","EPOCH":"2023-06-19T10:00:03.547008","MEAN_MOTION_DOT":"0.00001459","OBJECT_ID":"2022-076BC","DECAY_DATE":null,"ARG_OF_PERICENTER":"96.7357","PERIAPSIS":"539.130","MEAN_MOTION_DDOT":"0.0000000000000","COUNTRY_CODE":"US","MEAN_ELEMENT_THEORY":"SGP4","RA_OF_ASC_NODE":"217.5839","CLASSIFICATION_TYPE":"U","PERIOD":"95.438"},{"MEAN_MOTION":"15.08840099","REF_FRAME":"TEME","SEMIMAJOR_AXIS":"6917.880","RCS_SIZE":"LARGE","NORAD_CAT_ID":"53037","OBJECT_TYPE":"PAYLOAD","MEAN_ANOMALY":"277.8827","TLE_LINE2":"2 53037  53.2144 217.6011 0000983  82.2276 277.8827 15.08840099 53029","APOAPSIS":"540.425","TLE_LINE1":"1 53037U 22076BD  23170.41303081  .00002473  00000-0  17342-3 0  9994","LAUNCH_DATE":"2022-07-07","CENTER_NAME":"EARTH","ECCENTRICITY":"0.00009830","SITE":"AFETR","MEAN_MOTION_DOT":"0.00002473","OBJECT_ID":"2022-076BD","INCLINATION":"53.2144","REV_AT_EPOCH":"5302","ELEMENT_SET_NO":"999","EPOCH":"2023-06-19T09:54:45.861984","FILE":"3937338","EPHEMERIS_TYPE":"0","TIME_SYSTEM":"UTC","OBJECT_NAME":"STARLINK-4153","GP_ID":"234289083","BSTAR":"0.00017342000000","CLASSIFICATION_TYPE":"U","RA_OF_ASC_NODE":"217.6011","PERIOD":"95.438","COUNTRY_CODE":"US","MEAN_ELEMENT_THEORY":"SGP4","DECAY_DATE":null,"ARG_OF_PERICENTER":"82.2276","PERIAPSIS":"539.065","MEAN_MOTION_DDOT":"0.0000000000000"},{"CLASSIFICATION_TYPE":"U","RA_OF_ASC_NODE":"217.6153","PERIOD":"95.438","COUNTRY_CODE":"US","MEAN_ELEMENT_THEORY":"SGP4","DECAY_DATE":null,"ARG_OF_PERICENTER":"66.0437","PERIAPSIS":"538.991","MEAN_MOTION_DDOT":"0.0000000000000","MEAN_MOTION_DOT":"0.00002860","OBJECT_ID":"2022-076BE","INCLINATION":"53.2146","REV_AT_EPOCH":"5302","ELEMENT_SET_NO":"999","EPOCH":"2023-06-19T09:49:28.884576","FILE":"3937338","EPHEMERIS_TYPE":"0","TIME_SYSTEM":"UTC","OBJECT_NAME":"STARLINK-4156","GP_ID":"234287339","BSTAR":"0.00019772000000","TLE_LINE2":"2 53038  53.2146 217.6153 0001113  66.0437 294.0671 15.08834947 53027","APOAPSIS":"540.531","LAUNCH_DATE":"2022-07-07","TLE_LINE1":"1 53038U 22076BE  23170.40936209  .00002860  00000-0  19772-3 0  9997","ECCENTRICITY":"0.00011130","CENTER_NAME":"EARTH","SITE":"AFETR","MEAN_MOTION":"15.08834947","SEMIMAJOR_AXIS":"6917.896","REF_FRAME":"TEME","NORAD_CAT_ID":"53038","RCS_SIZE":"LARGE","MEAN_ANOMALY":"294.0671","OBJECT_TYPE":"PAYLOAD"},{"OBJECT_TYPE":"PAYLOAD","MEAN_ANOMALY":"292.9402","RCS_SIZE":"LARGE","NORAD_CAT_ID":"53043","SEMIMAJOR_AXIS":"6941.143","REF_FRAME":"TEME","MEAN_MOTION":"15.01261405","SITE":"AFWTR","LAUNCH_DATE":"2022-07-11","TLE_LINE1":"1 53043U 22077A   23170.78930406  .00000649  00000-0  55138-4 0  9998","ECCENTRICITY":"0.00024440","CENTER_NAME":"EARTH","TLE_LINE2":"2 53043  97.6595 351.8258 0002444  67.2080 292.9402 15.01261405 51804","APOAPSIS":"564.704","BSTAR":"0.00005513800000","EPHEMERIS_TYPE":"0","GP_ID":"234320018","OBJECT_NAME":"STARLINK-4362","TIME_SYSTEM":"UTC","REV_AT_EPOCH":"5180","ELEMENT_SET_NO":"999","INCLINATION":"97.6595","FILE":"3937509","EPOCH":"2023-06-19T18:56:35.870784","MEAN_MOTION_DOT":"0.00000649","OBJECT_ID":"2022-077A","ARG_OF_PERICENTER":"67.2080","DECAY_DATE":null,"MEAN_MOTION_DDOT":"0.0000000000000","PERIAPSIS":"561.311","MEAN_ELEMENT_THEORY":"SGP4","COUNTRY_CODE":"US","PERIOD":"95.919","RA_OF_ASC_NODE":"351.8258","CLASSIFICATION_TYPE":"U"},{"BSTAR":"0.00004356400000","EPHEMERIS_TYPE":"0","OBJECT_NAME":"STARLINK-4349","TIME_SYSTEM":"UTC","GP_ID":"234318767","INCLINATION":"97.6587","REV_AT_EPOCH":"5180","ELEMENT_SET_NO":"999","EPOCH":"2023-06-19T18:51:15.873696","FILE":"3937509","MEAN_MOTION_DOT":"0.00000501","OBJECT_ID":"2022-077B","DECAY_DATE":null,"ARG_OF_PERICENTER":"59.5037","PERIAPSIS":"561.563","MEAN_MOTION_DDOT":"0.0000000000000","COUNTRY_CODE":"US","MEAN_ELEMENT_THEORY":"SGP4","CLASSIFICATION_TYPE":"U","RA_OF_ASC_NODE":"351.8253","PERIOD":"95.919","MEAN_ANOMALY":"300.6393","OBJECT_TYPE":"PAYLOAD","NORAD_CAT_ID":"53044","RCS_SIZE":"LARGE","SEMIMAJOR_AXIS":"6941.142","REF_FRAME":"TEME","MEAN_MOTION":"15.01261507","SITE":"AFWTR","LAUNCH_DATE":"2022-07-11","TLE_LINE1":"1 53044U 22077B   23170.78560039  .00000501  00000-0  43564-4 0  9997","CENTER_NAME":"EARTH","ECCENTRICITY":"0.00020800","TLE_LINE2":"2 53044  97.6587 351.8253 0002080  59.5037 300.6393 15.01261507 51802","APOAPSIS":"564.451"}];
